[
    {
      "Location": "Achheja",
      "Pincode": 203207,
      "State": "Uttar Pradesh",
      "District": "Gautam Buddha nagar"
    },
    {
      "Location": "Ahamedpur chauroli",
      "Pincode": 203155,
      "State": "Uttar Pradesh",
      "District": "Gautam Buddha nagar"
    },
    {
      "Location": "Alpha Greater noida",
      "Pincode": 201308,
      "State": "Uttar Pradesh",
      "District": "Gautam Buddha nagar"
    },
    {
      "Location": "Astauly",
      "Pincode": 203202,
      "State": "Uttar Pradesh",
      "District": "Gautam Buddha nagar"
    },
    {
      "Location": "Bambawar",
      "Pincode": 203207,
      "State": "Uttar Pradesh",
      "District": "Gautam Buddha nagar"
    },
    {
      "Location": "Banchawaly",
      "Pincode": 203203,
      "State": "Uttar Pradesh",
      "District": "Gautam Buddha nagar"
    },
    {
      "Location": "Bankapur",
      "Pincode": 203155,
      "State": "Uttar Pradesh",
      "District": "Gautam Buddha nagar"
    },
    {
      "Location": "Baraula",
      "Pincode": 201304,
      "State": "Uttar Pradesh",
      "District": "Gautam Buddha nagar"
    },
    {
      "Location": "Baroda",
      "Pincode": 203202,
      "State": "Uttar Pradesh",
      "District": "Gautam Buddha nagar"
    },
    {
      "Location": "Behhrampur",
      "Pincode": 203207,
      "State": "Uttar Pradesh",
      "District": "Gautam Buddha nagar"
    },
    {
      "Location": "Bhaipur",
      "Pincode": 203141,
      "State": "Uttar Pradesh",
      "District": "Gautam Buddha nagar"
    },
    {
      "Location": "Bhaipur brahmanan",
      "Pincode": 203209,
      "State": "Uttar Pradesh",
      "District": "Gautam Buddha nagar"
    },
    {
      "Location": "Bhunna jattan",
      "Pincode": 203141,
      "State": "Uttar Pradesh",
      "District": "Gautam Buddha nagar"
    },
    {
      "Location": "Bichat sujanpur",
      "Pincode": 203203,
      "State": "Uttar Pradesh",
      "District": "Gautam Buddha nagar"
    },
    {
      "Location": "Bilaspur",
      "Pincode": 203131,
      "State": "Uttar Pradesh",
      "District": "Gautam Buddha nagar"
    },
    {
      "Location": "Biroundi Tajpur",
      "Pincode": 203203,
      "State": "Uttar Pradesh",
      "District": "Gautam Buddha nagar"
    },
    {
      "Location": "Bisara",
      "Pincode": 201008,
      "State": "Uttar Pradesh",
      "District": "Gautam Buddha nagar"
    },
    {
      "Location": "Bisrakh",
      "Pincode": 201301,
      "State": "Uttar Pradesh",
      "District": "Gautam Buddha nagar"
    },
    {
      "Location": "Chainsa",
      "Pincode": 203207,
      "State": "Uttar Pradesh",
      "District": "Gautam Buddha nagar"
    },
    {
      "Location": "Chanchaly",
      "Pincode": 203155,
      "State": "Uttar Pradesh",
      "District": "Gautam Buddha nagar"
    },
    {
      "Location": "Chhajarsi",
      "Pincode": 201307,
      "State": "Uttar Pradesh",
      "District": "Gautam Buddha nagar"
    },
    {
      "Location": "Chhapana",
      "Pincode": 203141,
      "State": "Uttar Pradesh",
      "District": "Gautam Buddha nagar"
    },
    {
      "Location": "Chhaprauli Bengar",
      "Pincode": 201305,
      "State": "Uttar Pradesh",
      "District": "Gautam Buddha nagar"
    },
    {
      "Location": "Chholas",
      "Pincode": 203207,
      "State": "Uttar Pradesh",
      "District": "Gautam Buddha nagar"
    },
    {
      "Location": "Chingrawly",
      "Pincode": 203141,
      "State": "Uttar Pradesh",
      "District": "Gautam Buddha nagar"
    },
    {
      "Location": "Chiroury",
      "Pincode": 202399,
      "State": "Uttar Pradesh",
      "District": "Gautam Buddha nagar"
    },
    {
      "Location": "Chithera",
      "Pincode": 203207,
      "State": "Uttar Pradesh",
      "District": "Gautam Buddha nagar"
    },
    {
      "Location": "Chiti",
      "Pincode": 203202,
      "State": "Uttar Pradesh",
      "District": "Gautam Buddha nagar"
    },
    {
      "Location": "Chol R.s.",
      "Pincode": 203203,
      "State": "Uttar Pradesh",
      "District": "Gautam Buddha nagar"
    },
    {
      "Location": "Dadri",
      "Pincode": 203207,
      "State": "Uttar Pradesh",
      "District": "Gautam Buddha nagar"
    },
    {
      "Location": "Dayanatpur",
      "Pincode": 203135,
      "State": "Uttar Pradesh",
      "District": "Gautam Buddha nagar"
    },
    {
      "Location": "Deota",
      "Pincode": 203202,
      "State": "Uttar Pradesh",
      "District": "Gautam Buddha nagar"
    },
    {
      "Location": "Dhanouri kalan",
      "Pincode": 203201,
      "State": "Uttar Pradesh",
      "District": "Gautam Buddha nagar"
    },
    {
      "Location": "Dhoomedso",
      "Pincode": 203208,
      "State": "Uttar Pradesh",
      "District": "Gautam Buddha nagar"
    },
    {
      "Location": "Dujana",
      "Pincode": 203207,
      "State": "Uttar Pradesh",
      "District": "Gautam Buddha nagar"
    },
    {
      "Location": "Faleda",
      "Pincode": 203135,
      "State": "Uttar Pradesh",
      "District": "Gautam Buddha nagar"
    },
    {
      "Location": "Firoujpur",
      "Pincode": 203141,
      "State": "Uttar Pradesh",
      "District": "Gautam Buddha nagar"
    },
    {
      "Location": "Gejha",
      "Pincode": 201304,
      "State": "Uttar Pradesh",
      "District": "Gautam Buddha nagar"
    },
    {
      "Location": "Ghori",
      "Pincode": 201306,
      "State": "Uttar Pradesh",
      "District": "Gautam Buddha nagar"
    },
    {
      "Location": "Gotheny",
      "Pincode": 203141,
      "State": "Uttar Pradesh",
      "District": "Gautam Buddha nagar"
    },
    {
      "Location": "I.A. surajpur",
      "Pincode": 201306,
      "State": "Uttar Pradesh",
      "District": "Gautam Buddha nagar"
    },
    {
      "Location": "Jahangirpur",
      "Pincode": 203141,
      "State": "Uttar Pradesh",
      "District": "Gautam Buddha nagar"
    },
    {
      "Location": "Jarcha",
      "Pincode": 203207,
      "State": "Uttar Pradesh",
      "District": "Gautam Buddha nagar"
    },
    {
      "Location": "Jawan",
      "Pincode": 203141,
      "State": "Uttar Pradesh",
      "District": "Gautam Buddha nagar"
    },
    {
      "Location": "Jewar",
      "Pincode": 203135,
      "State": "Uttar Pradesh",
      "District": "Gautam Buddha nagar"
    },
    {
      "Location": "Jhajhar",
      "Pincode": 203203,
      "State": "Uttar Pradesh",
      "District": "Gautam Buddha nagar"
    },
    {
      "Location": "Kachera Versabad",
      "Pincode": 203207,
      "State": "Uttar Pradesh",
      "District": "Gautam Buddha nagar"
    },
    {
      "Location": "Kalaunda",
      "Pincode": 203207,
      "State": "Uttar Pradesh",
      "District": "Gautam Buddha nagar"
    },
    {
      "Location": "Kanigarhi",
      "Pincode": 203135,
      "State": "Uttar Pradesh",
      "District": "Gautam Buddha nagar"
    },
    {
      "Location": "Karauli Banger",
      "Pincode": 203209,
      "State": "Uttar Pradesh",
      "District": "Gautam Buddha nagar"
    },
    {
      "Location": "Kasna",
      "Pincode": 201306,
      "State": "Uttar Pradesh",
      "District": "Gautam Buddha nagar"
    },
    {
      "Location": "Khabra khanpur",
      "Pincode": 203203,
      "State": "Uttar Pradesh",
      "District": "Gautam Buddha nagar"
    },
    {
      "Location": "Khandara",
      "Pincode": 203207,
      "State": "Uttar Pradesh",
      "District": "Gautam Buddha nagar"
    },
    {
      "Location": "Khatana",
      "Pincode": 203207,
      "State": "Uttar Pradesh",
      "District": "Gautam Buddha nagar"
    },
    {
      "Location": "Kheri Bhanauta",
      "Pincode": 203207,
      "State": "Uttar Pradesh",
      "District": "Gautam Buddha nagar"
    },
    {
      "Location": "Khora Gaon",
      "Pincode": 201307,
      "State": "Uttar Pradesh",
      "District": "Gautam Buddha nagar"
    },
    {
      "Location": "Kishore Pur",
      "Pincode": 203155,
      "State": "Uttar Pradesh",
      "District": "Gautam Buddha nagar"
    },
    {
      "Location": "Kot",
      "Pincode": 203207,
      "State": "Uttar Pradesh",
      "District": "Gautam Buddha nagar"
    },
    {
      "Location": "Kulesra",
      "Pincode": 201306,
      "State": "Uttar Pradesh",
      "District": "Gautam Buddha nagar"
    },
    {
      "Location": "Kureb",
      "Pincode": 203135,
      "State": "Uttar Pradesh",
      "District": "Gautam Buddha nagar"
    },
    {
      "Location": "Lodana",
      "Pincode": 203141,
      "State": "Uttar Pradesh",
      "District": "Gautam Buddha nagar"
    },
    {
      "Location": "Luharli",
      "Pincode": 203207,
      "State": "Uttar Pradesh",
      "District": "Gautam Buddha nagar"
    },
    {
      "Location": "Mahamdpur jadon",
      "Pincode": 203203,
      "State": "Uttar Pradesh",
      "District": "Gautam Buddha nagar"
    },
    {
      "Location": "Maharishi Nagar",
      "Pincode": 201304,
      "State": "Uttar Pradesh",
      "District": "Gautam Buddha nagar"
    },
    {
      "Location": "Maicha",
      "Pincode": 201301,
      "State": "Uttar Pradesh",
      "District": "Gautam Buddha nagar"
    },
    {
      "Location": "Manchad",
      "Pincode": 203155,
      "State": "Uttar Pradesh",
      "District": "Gautam Buddha nagar"
    },
    {
      "Location": "Mangrouly",
      "Pincode": 203135,
      "State": "Uttar Pradesh",
      "District": "Gautam Buddha nagar"
    },
    {
      "Location": "Mansoor Pur hasanpur",
      "Pincode": 203141,
      "State": "Uttar Pradesh",
      "District": "Gautam Buddha nagar"
    },
    {
      "Location": "Mirzapur Niloni",
      "Pincode": 203201,
      "State": "Uttar Pradesh",
      "District": "Gautam Buddha nagar"
    },
    {
      "Location": "Nagla Charandas",
      "Pincode": 201305,
      "State": "Uttar Pradesh",
      "District": "Gautam Buddha nagar"
    },
    {
      "Location": "Narmohamadpur",
      "Pincode": 203141,
      "State": "Uttar Pradesh",
      "District": "Gautam Buddha nagar"
    },
    {
      "Location": "Nawada",
      "Pincode": 203201,
      "State": "Uttar Pradesh",
      "District": "Gautam Buddha nagar"
    },
    {
      "Location": "Neemka",
      "Pincode": 203155,
      "State": "Uttar Pradesh",
      "District": "Gautam Buddha nagar"
    },
    {
      "Location": "Nepz Post office",
      "Pincode": 201305,
      "State": "Uttar Pradesh",
      "District": "Gautam Buddha nagar"
    },
    {
      "Location": "Noida",
      "Pincode": 201301,
      "State": "Uttar Pradesh",
      "District": "Gautam Buddha nagar"
    },
    {
      "Location": "Pali",
      "Pincode": 203207,
      "State": "Uttar Pradesh",
      "District": "Gautam Buddha nagar"
    },
    {
      "Location": "Parsol",
      "Pincode": 203201,
      "State": "Uttar Pradesh",
      "District": "Gautam Buddha nagar"
    },
    {
      "Location": "Parthala Khanjarpur",
      "Pincode": 201304,
      "State": "Uttar Pradesh",
      "District": "Gautam Buddha nagar"
    },
    {
      "Location": "Piyaoli",
      "Pincode": 201008,
      "State": "Uttar Pradesh",
      "District": "Gautam Buddha nagar"
    },
    {
      "Location": "Rabupura",
      "Pincode": 203209,
      "State": "Uttar Pradesh",
      "District": "Gautam Buddha nagar"
    },
    {
      "Location": "Ram garhi",
      "Pincode": 203141,
      "State": "Uttar Pradesh",
      "District": "Gautam Buddha nagar"
    },
    {
      "Location": "Ranhera",
      "Pincode": 203155,
      "State": "Uttar Pradesh",
      "District": "Gautam Buddha nagar"
    },
    {
      "Location": "Rashol rithaury",
      "Pincode": 203202,
      "State": "Uttar Pradesh",
      "District": "Gautam Buddha nagar"
    },
    {
      "Location": "Ronija",
      "Pincode": 203209,
      "State": "Uttar Pradesh",
      "District": "Gautam Buddha nagar"
    },
    {
      "Location": "Sabouta jafrabad",
      "Pincode": 203135,
      "State": "Uttar Pradesh",
      "District": "Gautam Buddha nagar"
    },
    {
      "Location": "Sainthli",
      "Pincode": 203207,
      "State": "Uttar Pradesh",
      "District": "Gautam Buddha nagar"
    },
    {
      "Location": "Sakipur",
      "Pincode": 201306,
      "State": "Uttar Pradesh",
      "District": "Gautam Buddha nagar"
    },
    {
      "Location": "Salarpur Kalan",
      "Pincode": 201008,
      "State": "Uttar Pradesh",
      "District": "Gautam Buddha nagar"
    },
    {
      "Location": "Salempur gujar",
      "Pincode": 203202,
      "State": "Uttar Pradesh",
      "District": "Gautam Buddha nagar"
    },
    {
      "Location": "Salempur jat",
      "Pincode": 203203,
      "State": "Uttar Pradesh",
      "District": "Gautam Buddha nagar"
    },
    {
      "Location": "Sarfabad",
      "Pincode": 201304,
      "State": "Uttar Pradesh",
      "District": "Gautam Buddha nagar"
    },
    {
      "Location": "Sec-12 Noida",
      "Pincode": 201301,
      "State": "Uttar Pradesh",
      "District": "Gautam Buddha nagar"
    },
    {
      "Location": "Sec-16 Noida",
      "Pincode": 201301,
      "State": "Uttar Pradesh",
      "District": "Gautam Buddha nagar"
    },
    {
      "Location": "Sec-30 Noida",
      "Pincode": 201301,
      "State": "Uttar Pradesh",
      "District": "Gautam Buddha nagar"
    },
    {
      "Location": "Sec-34 Noida",
      "Pincode": 201307,
      "State": "Uttar Pradesh",
      "District": "Gautam Buddha nagar"
    },
    {
      "Location": "Sec-37 Noida",
      "Pincode": 201303,
      "State": "Uttar Pradesh",
      "District": "Gautam Buddha nagar"
    },
    {
      "Location": "Sec-45 Noida",
      "Pincode": 201303,
      "State": "Uttar Pradesh",
      "District": "Gautam Buddha nagar"
    },
    {
      "Location": "Sec-55 Noida",
      "Pincode": 201307,
      "State": "Uttar Pradesh",
      "District": "Gautam Buddha nagar"
    },
    {
      "Location": "Sec-62 Noida",
      "Pincode": 201309,
      "State": "Uttar Pradesh",
      "District": "Gautam Buddha nagar"
    },
    {
      "Location": "Shahpur kala",
      "Pincode": 203141,
      "State": "Uttar Pradesh",
      "District": "Gautam Buddha nagar"
    },
    {
      "Location": "Sunpera",
      "Pincode": 203203,
      "State": "Uttar Pradesh",
      "District": "Gautam Buddha nagar"
    },
    {
      "Location": "Thora",
      "Pincode": 203155,
      "State": "Uttar Pradesh",
      "District": "Gautam Buddha nagar"
    },
    {
      "Location": "Tilapta Karanwas",
      "Pincode": 201306,
      "State": "Uttar Pradesh",
      "District": "Gautam Buddha nagar"
    },
    {
      "Location": "Tirthaly",
      "Pincode": 203209,
      "State": "Uttar Pradesh",
      "District": "Gautam Buddha nagar"
    },
    {
      "Location": "Tugalpur",
      "Pincode": 201308,
      "State": "Uttar Pradesh",
      "District": "Gautam Buddha nagar"
    },
    {
      "Location": "Vedpura",
      "Pincode": 203207,
      "State": "Uttar Pradesh",
      "District": "Gautam Buddha nagar"
    },
    {
      "Location": "Vidyut Nagar",
      "Pincode": 201008,
      "State": "Uttar Pradesh",
      "District": "Gautam Buddha nagar"
    },
    {
      "Location": "Wailana",
      "Pincode": 203203,
      "State": "Uttar Pradesh",
      "District": "Gautam Buddha nagar"
    },
    {
      "Location": "Wair",
      "Pincode": 203202,
      "State": "Uttar Pradesh",
      "District": "Gautam Buddha nagar"
    }
  ]